[{"OBJECT_NAME":"DUBAISAT-2","OBJECT_ID":"2013-066D","EPOCH":"2026-03-09T22:07:51.982752","MEAN_MOTION":15.09361694,"ECCENTRICITY":0.00120191,"INCLINATION":97.4538,"RA_OF_ASC_NODE":61.7474,"ARG_OF_PERICENTER":22.7165,"MEAN_ANOMALY":337.4593,"EPHEMERIS_TYPE":0,"CLASSIFICATION_TYPE":"U","NORAD_CAT_ID":39419,"ELEMENT_SET_NO":999,"REV_AT_EPOCH":67141,"BSTAR":0.00034743884,"MEAN_MOTION_DOT":5.495e-5,"MEAN_MOTION_DDOT":0},{"OBJECT_NAME":"STARLINK-5090","OBJECT_ID":"2023-046AX","EPOCH":"2026-03-09T22:00:01.999584","MEAN_MOTION":15.10022379,"ECCENTRICITY":0.00018333,"INCLINATION":42.9997,"RA_OF_ASC_NODE":144.2702,"ARG_OF_PERICENTER":258.3059,"MEAN_ANOMALY":26.3925,"EPHEMERIS_TYPE":0,"CLASSIFICATION_TYPE":"U","NORAD_CAT_ID":56137,"ELEMENT_SET_NO":999,"REV_AT_EPOCH":572,"BSTAR":0.00019724228,"MEAN_MOTION_DOT":3.045e-5,"MEAN_MOTION_DDOT":0}]
